STARLINK-31408          
1 59240U 24049K   26068.23792891 -.00000268  00000+0 -21231-6 0  9994
2 59240  42.9985 146.3745 0001039 282.3363  77.7372 15.27566294112339
TEVEL2-8                
1 63239U 25052AF  26068.66815442  .00019130  00000+0  69304-3 0  9993
2 63239  97.4055 324.2923 0008031 124.9191 235.2804 15.28392908 54807
